{
    "links": {
        "self": "http://www.neowsapp.com/rest/v1/neo/3776283?api_key=iIulBulltgU6a56xZRHN4H3l9WmuAYTsLGpBGhQ2"
    },
    "id": "3776283",
    "neo_reference_id": "3776283",
    "name": "(2017 NC)",
    "designation": "2017 NC",
    "nasa_jpl_url": "http://ssd.jpl.nasa.gov/sbdb.cgi?sstr=3776283",
    "absolute_magnitude_h": 25.7,
    "estimated_diameter": {
        "kilometers": {
            "estimated_diameter_min": 0.0192555078,
            "estimated_diameter_max": 0.0430566244
        },
        "meters": {
            "estimated_diameter_min": 19.2555078188,
            "estimated_diameter_max": 43.0566244241
        },
        "miles": {
            "estimated_diameter_min": 0.0119648141,
            "estimated_diameter_max": 0.0267541378
        },
        "feet": {
            "estimated_diameter_min": 63.1742402722,
            "estimated_diameter_max": 141.2618956756
        }
    },
    "is_potentially_hazardous_asteroid": false,
    "close_approach_data": [
        {
            "close_approach_date": "1985-07-23",
            "close_approach_date_full": "1985-Jul-23 00:48",
            "epoch_date_close_approach": 490927680000,
            "relative_velocity": {
                "kilometers_per_second": "25.1004372268",
                "kilometers_per_hour": "90361.5740165779",
                "miles_per_hour": "56147.1680326898"
            },
            "miss_distance": {
                "astronomical": "0.4716986376",
                "lunar": "183.4907700264",
                "kilometers": "70565111.466861912",
                "miles": "43847127.0472099056"
            },
            "orbiting_body": "Earth"
        },
        {
            "close_approach_date": "2014-11-17",
            "close_approach_date_full": "2014-Nov-17 08:09",
            "epoch_date_close_approach": 1416211740000,
            "relative_velocity": {
                "kilometers_per_second": "10.8315234977",
                "kilometers_per_hour": "38993.4845918478",
                "miles_per_hour": "24229.0349120845"
            },
            "miss_distance": {
                "astronomical": "0.0744477926",
                "lunar": "28.9601913214",
                "kilometers": "11137231.199161762",
                "miles": "6920354.5660538356"
            },
            "orbiting_body": "Mars"
        },
        {
            "close_approach_date": "2017-06-29",
            "close_approach_date_full": "2017-Jun-29 12:31",
            "epoch_date_close_approach": 1498739460000,
            "relative_velocity": {
                "kilometers_per_second": "11.5905509294",
                "kilometers_per_hour": "41725.983345763",
                "miles_per_hour": "25926.903373927"
            },
            "miss_distance": {
                "astronomical": "0.0203842579",
                "lunar": "7.9294763231",
                "kilometers": "3049441.563370673",
                "miles": "1894835.1228063674"
            },
            "orbiting_body": "Earth"
        },
        {
            "close_approach_date": "2019-12-22",
            "close_approach_date_full": "2019-Dec-22 13:02",
            "epoch_date_close_approach": 1577019720000,
            "relative_velocity": {
                "kilometers_per_second": "25.1853463844",
                "kilometers_per_hour": "90667.2469838645",
                "miles_per_hour": "56337.1013272796"
            },
            "miss_distance": {
                "astronomical": "0.4594049724",
                "lunar": "178.7085342636",
                "kilometers": "68726005.338448788",
                "miles": "42704359.4898497544"
            },
            "orbiting_body": "Earth"
        },
        {
            "close_approach_date": "2056-06-11",
            "close_approach_date_full": "2056-Jun-11 14:23",
            "epoch_date_close_approach": 2727958980000,
            "relative_velocity": {
                "kilometers_per_second": "7.7332237908",
                "kilometers_per_hour": "27839.6056469178",
                "miles_per_hour": "17298.448297664"
            },
            "miss_distance": {
                "astronomical": "0.1328331634",
                "lunar": "51.6721005626",
                "kilometers": "19871558.310001958",
                "miles": "12347613.7673767004"
            },
            "orbiting_body": "Earth"
        }
    ],
    "orbital_data": {
        "orbit_id": "2",
        "orbit_determination_date": "2017-08-01 06:18:31",
        "first_observation_date": "2017-07-01",
        "last_observation_date": "2017-07-03",
        "data_arc_in_days": 2,
        "observations_used": 16,
        "orbit_uncertainty": "8",
        "minimum_orbit_intersection": ".0167664",
        "jupiter_tisserand_invariant": "5.076",
        "epoch_osculation": "2457936.5",
        "eccentricity": ".3903913230448263",
        "semi_major_axis": "1.246420334951457",
        "inclination": "1.133218539901484",
        "ascending_node_longitude": "220.2815608646281",
        "orbital_period": "508.2708645768352",
        "perihelion_distance": ".7598286513197823",
        "perihelion_argument": "332.5298453242245",
        "aphelion_distance": "1.733012018583132",
        "perihelion_time": "2457874.556623674157",
        "mean_anomaly": "43.87348760560808",
        "mean_motion": ".7082837618475747",
        "equinox": "J2000",
        "orbit_class": {
            "orbit_class_type": "APO",
            "orbit_class_description": "Near-Earth asteroid orbits which cross the Earth’s orbit similar to that of 1862 Apollo",
            "orbit_class_range": "a (semi-major axis) > 1.0 AU; q (perihelion) < 1.017 AU"
        }
    },
    "is_sentry_object": false
}